[{"OBJECT_NAME":"STARLINK-35135","OBJECT_ID":"2025-210H","EPOCH":"2026-03-09T23:06:59.058720","MEAN_MOTION":15.30197797,"ECCENTRICITY":9.846e-5,"INCLINATION":53.1613,"RA_OF_ASC_NODE":305.7579,"ARG_OF_PERICENTER":92.0819,"MEAN_ANOMALY":268.0294,"EPHEMERIS_TYPE":0,"CLASSIFICATION_TYPE":"U","NORAD_CAT_ID":65629,"ELEMENT_SET_NO":999,"REV_AT_EPOCH":2777,"BSTAR":0.0005981416,"MEAN_MOTION_DOT":0.00017396,"MEAN_MOTION_DDOT":0},{"OBJECT_NAME":"ELECTRON KICK STAGE R\/B","OBJECT_ID":"2025-061J","EPOCH":"2026-03-09T21:50:35.145600","MEAN_MOTION":15.31602074,"ECCENTRICITY":0.00402669,"INCLINATION":97.5479,"RA_OF_ASC_NODE":52.3854,"ARG_OF_PERICENTER":150.2628,"MEAN_ANOMALY":210.0914,"EPHEMERIS_TYPE":0,"CLASSIFICATION_TYPE":"U","NORAD_CAT_ID":63359,"ELEMENT_SET_NO":999,"REV_AT_EPOCH":5306,"BSTAR":0.0006963674,"MEAN_MOTION_DOT":0.00021749,"MEAN_MOTION_DDOT":0}]
